[{"OBJECT_NAME":"YAM-7","OBJECT_ID":"2024-149AN","EPOCH":"2026-03-09T17:13:55.117920","MEAN_MOTION":15.30304554,"ECCENTRICITY":0.00019733,"INCLINATION":97.3828,"RA_OF_ASC_NODE":149.4631,"ARG_OF_PERICENTER":296.5121,"MEAN_ANOMALY":63.5918,"EPHEMERIS_TYPE":0,"CLASSIFICATION_TYPE":"U","NORAD_CAT_ID":60504,"ELEMENT_SET_NO":999,"REV_AT_EPOCH":8683,"BSTAR":0.00030984439,"MEAN_MOTION_DOT":9.009e-5,"MEAN_MOTION_DDOT":0},{"OBJECT_NAME":"STARLINK-34416","OBJECT_ID":"2025-137AB","EPOCH":"2026-03-09T22:29:58.788672","MEAN_MOTION":15.30138478,"ECCENTRICITY":0.00016653,"INCLINATION":53.1604,"RA_OF_ASC_NODE":334.023,"ARG_OF_PERICENTER":11.2658,"MEAN_ANOMALY":348.8379,"EPHEMERIS_TYPE":0,"CLASSIFICATION_TYPE":"U","NORAD_CAT_ID":64619,"ELEMENT_SET_NO":999,"REV_AT_EPOCH":4077,"BSTAR":0.0012194054,"MEAN_MOTION_DOT":0.00035862,"MEAN_MOTION_DDOT":0}]
